CCSDS_OMM_VERS = 2.0
CREATION_DATE  = 
ORIGINATOR     = 

OBJECT_NAME    = SL-14 R/B
OBJECT_ID      = 1991-042B
CENTER_NAME    = EARTH
REF_FRAME      = TEME
TIME_SYSTEM    = UTC
MEAN_ELEMENT_THEORY = SGP/SGP4

EPOCH          = 2025-12-20T21:15:14.511168
MEAN_MOTION    = 14.81745519
ECCENTRICITY   = .0018107
INCLINATION    = 82.4934
RA_OF_ASC_NODE = 294.0846
ARG_OF_PERICENTER = 136.0893
MEAN_ANOMALY   = 224.1764

EPHEMERIS_TYPE = 0
CLASSIFICATION_TYPE = U
NORAD_CAT_ID   = 21423
ELEMENT_SET_NO = 999
REV_AT_EPOCH   = 84140
BSTAR          = .36625E-4
MEAN_MOTION_DOT = .313E-5
MEAN_MOTION_DDOT = 0

CCSDS_OMM_VERS = 2.0
CREATION_DATE  = 
ORIGINATOR     = 

OBJECT_NAME    = ERS-1
OBJECT_ID      = 1991-050A
CENTER_NAME    = EARTH
REF_FRAME      = TEME
TIME_SYSTEM    = UTC
MEAN_ELEMENT_THEORY = SGP/SGP4

EPOCH          = 2025-12-20T22:33:06.223104
MEAN_MOTION    = 14.39370427
ECCENTRICITY   = .0032995
INCLINATION    = 98.7900
RA_OF_ASC_NODE = 6.1994
ARG_OF_PERICENTER = 76.4145
MEAN_ANOMALY   = 284.0714

EPHEMERIS_TYPE = 0
CLASSIFICATION_TYPE = U
NORAD_CAT_ID   = 21574
ELEMENT_SET_NO = 999
REV_AT_EPOCH   = 80440
BSTAR          = .82493E-4
MEAN_MOTION_DOT = .212E-5
MEAN_MOTION_DDOT = 0

CCSDS_OMM_VERS = 2.0
CREATION_DATE  = 
ORIGINATOR     = 

OBJECT_NAME    = ARIANE 40 R/B
OBJECT_ID      = 1991-050F
CENTER_NAME    = EARTH
REF_FRAME      = TEME
TIME_SYSTEM    = UTC
MEAN_ELEMENT_THEORY = SGP/SGP4

EPOCH          = 2025-12-21T02:36:06.198912
MEAN_MOTION    = 14.42819569
ECCENTRICITY   = .0002277
INCLINATION    = 98.2154
RA_OF_ASC_NODE = 45.2367
ARG_OF_PERICENTER = 331.3181
MEAN_ANOMALY   = 28.7884

EPHEMERIS_TYPE = 0
CLASSIFICATION_TYPE = U
NORAD_CAT_ID   = 21610
ELEMENT_SET_NO = 999
REV_AT_EPOCH   = 80766
BSTAR          = .84566E-4
MEAN_MOTION_DOT = .24E-5
MEAN_MOTION_DDOT = 0

CCSDS_OMM_VERS = 2.0
CREATION_DATE  = 
ORIGINATOR     = 

OBJECT_NAME    = INTERCOSMOS 25
OBJECT_ID      = 1991-086A
CENTER_NAME    = EARTH
REF_FRAME      = TEME
TIME_SYSTEM    = UTC
MEAN_ELEMENT_THEORY = SGP/SGP4

EPOCH          = 2025-12-21T01:21:27.743904
MEAN_MOTION    = 12.11758067
ECCENTRICITY   = .1486368
INCLINATION    = 82.6070
RA_OF_ASC_NODE = 357.5447
ARG_OF_PERICENTER = 286.4653
MEAN_ANOMALY   = 57.8562

EPHEMERIS_TYPE = 0
CLASSIFICATION_TYPE = U
NORAD_CAT_ID   = 21819
ELEMENT_SET_NO = 999
REV_AT_EPOCH   = 48716
BSTAR          = .35656E-3
MEAN_MOTION_DOT = .179E-4
MEAN_MOTION_DDOT = 0

CCSDS_OMM_VERS = 2.0
CREATION_DATE  = 
ORIGINATOR     = 

OBJECT_NAME    = SL-8 R/B
OBJECT_ID      = 1992-008B
CENTER_NAME    = EARTH
REF_FRAME      = TEME
TIME_SYSTEM    = UTC
MEAN_ELEMENT_THEORY = SGP/SGP4

EPOCH          = 2025-12-21T04:15:34.450848
MEAN_MOTION    = 13.75960773
ECCENTRICITY   = .0034652
INCLINATION    = 82.9268
RA_OF_ASC_NODE = 326.1699
ARG_OF_PERICENTER = 356.4295
MEAN_ANOMALY   = 16.1435

EPHEMERIS_TYPE = 0
CLASSIFICATION_TYPE = U
NORAD_CAT_ID   = 21876
ELEMENT_SET_NO = 999
REV_AT_EPOCH   = 69862
BSTAR          = .86414E-4
MEAN_MOTION_DOT = .99E-6
MEAN_MOTION_DDOT = 0

CCSDS_OMM_VERS = 2.0
CREATION_DATE  = 
ORIGINATOR     = 

OBJECT_NAME    = SL-8 R/B
OBJECT_ID      = 1992-020B
CENTER_NAME    = EARTH
REF_FRAME      = TEME
TIME_SYSTEM    = UTC
MEAN_ELEMENT_THEORY = SGP/SGP4

EPOCH          = 2025-12-21T01:41:35.743776
MEAN_MOTION    = 13.75529110
ECCENTRICITY   = .0029438
INCLINATION    = 82.9297
RA_OF_ASC_NODE = 212.1313
ARG_OF_PERICENTER = 155.0275
MEAN_ANOMALY   = 315.1086

EPHEMERIS_TYPE = 0
CLASSIFICATION_TYPE = U
NORAD_CAT_ID   = 21938
ELEMENT_SET_NO = 999
REV_AT_EPOCH   = 69032
BSTAR          = .11676E-3
MEAN_MOTION_DOT = .128E-5
MEAN_MOTION_DDOT = 0

CCSDS_OMM_VERS = 2.0
CREATION_DATE  = 
ORIGINATOR     = 

OBJECT_NAME    = USA 81
OBJECT_ID      = 1992-023A
CENTER_NAME    = EARTH
REF_FRAME      = TEME
TIME_SYSTEM    = UTC
MEAN_ELEMENT_THEORY = SGP/SGP4

EPOCH          = 2025-12-20T13:53:34.811232
MEAN_MOTION    = 14.32329508
ECCENTRICITY   = .0001152
INCLINATION    = 85.0079
RA_OF_ASC_NODE = 177.0549
ARG_OF_PERICENTER = 76.9071
MEAN_ANOMALY   = 283.2250

EPHEMERIS_TYPE = 0
CLASSIFICATION_TYPE = U
NORAD_CAT_ID   = 21949
ELEMENT_SET_NO = 999
REV_AT_EPOCH   = 8346
BSTAR          = .45566E-4
MEAN_MOTION_DOT = .143E-5
MEAN_MOTION_DDOT = 0

CCSDS_OMM_VERS = 2.0
CREATION_DATE  = 
ORIGINATOR     = 

OBJECT_NAME    = COSMOS 2219
OBJECT_ID      = 1992-076A
CENTER_NAME    = EARTH
REF_FRAME      = TEME
TIME_SYSTEM    = UTC
MEAN_ELEMENT_THEORY = SGP/SGP4

EPOCH          = 2025-12-20T20:37:53.609664
MEAN_MOTION    = 14.14064805
ECCENTRICITY   = .0019234
INCLINATION    = 71.0573
RA_OF_ASC_NODE = 182.8582
ARG_OF_PERICENTER = 315.8435
MEAN_ANOMALY   = 44.1151

EPHEMERIS_TYPE = 0
CLASSIFICATION_TYPE = U
NORAD_CAT_ID   = 22219
ELEMENT_SET_NO = 999
REV_AT_EPOCH   = 70723
BSTAR          = .13552E-3
MEAN_MOTION_DOT = .211E-5
MEAN_MOTION_DDOT = 0

CCSDS_OMM_VERS = 2.0
CREATION_DATE  = 
ORIGINATOR     = 

OBJECT_NAME    = SL-16 R/B
OBJECT_ID      = 1992-076B
CENTER_NAME    = EARTH
REF_FRAME      = TEME
TIME_SYSTEM    = UTC
MEAN_ELEMENT_THEORY = SGP/SGP4

EPOCH          = 2025-12-21T02:51:34.434720
MEAN_MOTION    = 14.16843784
ECCENTRICITY   = .0014357
INCLINATION    = 71.0007
RA_OF_ASC_NODE = 353.8804
ARG_OF_PERICENTER = 222.7641
MEAN_ANOMALY   = 200.8754

EPHEMERIS_TYPE = 0
CLASSIFICATION_TYPE = U
NORAD_CAT_ID   = 22220
ELEMENT_SET_NO = 999
REV_AT_EPOCH   = 71070
BSTAR          = .13794E-3
MEAN_MOTION_DOT = .229E-5
MEAN_MOTION_DDOT = 0

CCSDS_OMM_VERS = 2.0
CREATION_DATE  = 
ORIGINATOR     = 

OBJECT_NAME    = COSMOS 2221
OBJECT_ID      = 1992-080A
CENTER_NAME    = EARTH
REF_FRAME      = TEME
TIME_SYSTEM    = UTC
MEAN_ELEMENT_THEORY = SGP/SGP4

EPOCH          = 2025-12-21T01:06:27.167328
MEAN_MOTION    = 14.95788830
ECCENTRICITY   = .0016284
INCLINATION    = 82.5038
RA_OF_ASC_NODE = 354.3744
ARG_OF_PERICENTER = 96.0995
MEAN_ANOMALY   = 264.2083

EPHEMERIS_TYPE = 0
CLASSIFICATION_TYPE = U
NORAD_CAT_ID   = 22236
ELEMENT_SET_NO = 999
REV_AT_EPOCH   = 76903
BSTAR          = .1224E-3
MEAN_MOTION_DOT = .1394E-4
MEAN_MOTION_DDOT = 0

CCSDS_OMM_VERS = 2.0
CREATION_DATE  = 
ORIGINATOR     = 

OBJECT_NAME    = SL-16 R/B
OBJECT_ID      = 1992-093B
CENTER_NAME    = EARTH
REF_FRAME      = TEME
TIME_SYSTEM    = UTC
MEAN_ELEMENT_THEORY = SGP/SGP4

EPOCH          = 2025-12-20T22:36:21.953664
MEAN_MOTION    = 14.15434654
ECCENTRICITY   = .0002373
INCLINATION    = 71.0203
RA_OF_ASC_NODE = 169.5776
ARG_OF_PERICENTER = 44.0439
MEAN_ANOMALY   = 316.0873

EPHEMERIS_TYPE = 0
CLASSIFICATION_TYPE = U
NORAD_CAT_ID   = 22285
ELEMENT_SET_NO = 999
REV_AT_EPOCH   = 70201
BSTAR          = .73536E-4
MEAN_MOTION_DOT = .96E-6
MEAN_MOTION_DDOT = 0

CCSDS_OMM_VERS = 2.0
CREATION_DATE  = 
ORIGINATOR     = 

OBJECT_NAME    = COSMOS 2228
OBJECT_ID      = 1992-094A
CENTER_NAME    = EARTH
REF_FRAME      = TEME
TIME_SYSTEM    = UTC
MEAN_ELEMENT_THEORY = SGP/SGP4

EPOCH          = 2025-12-21T02:43:54.602688
MEAN_MOTION    = 14.96763878
ECCENTRICITY   = .0017139
INCLINATION    = 82.5182
RA_OF_ASC_NODE = 312.5215
ARG_OF_PERICENTER = 201.3622
MEAN_ANOMALY   = 158.6887

EPHEMERIS_TYPE = 0
CLASSIFICATION_TYPE = U
NORAD_CAT_ID   = 22286
ELEMENT_SET_NO = 999
REV_AT_EPOCH   = 76430
BSTAR          = .13986E-3
MEAN_MOTION_DOT = .163E-4
MEAN_MOTION_DDOT = 0

